[{"OBJECT_NAME":"KAZSTSAT","OBJECT_ID":"2018-099AB","EPOCH":"2026-03-09T14:51:18.118944","MEAN_MOTION":14.99620503,"ECCENTRICITY":0.0006528,"INCLINATION":97.4396,"RA_OF_ASC_NODE":105.0128,"ARG_OF_PERICENTER":11.1145,"MEAN_ANOMALY":349.0222,"EPHEMERIS_TYPE":0,"CLASSIFICATION_TYPE":"U","NORAD_CAT_ID":43783,"ELEMENT_SET_NO":999,"REV_AT_EPOCH":39638,"BSTAR":0.00011446,"MEAN_MOTION_DOT":1.354e-5,"MEAN_MOTION_DDOT":0},{"OBJECT_NAME":"STARLINK-5863","OBJECT_ID":"2023-037J","EPOCH":"2026-03-09T22:17:42.236448","MEAN_MOTION":14.98333801,"ECCENTRICITY":0.00023449,"INCLINATION":69.9995,"RA_OF_ASC_NODE":303.8279,"ARG_OF_PERICENTER":267.7645,"MEAN_ANOMALY":92.3246,"EPHEMERIS_TYPE":0,"CLASSIFICATION_TYPE":"U","NORAD_CAT_ID":55922,"ELEMENT_SET_NO":999,"REV_AT_EPOCH":16352,"BSTAR":-8.3205167e-5,"MEAN_MOTION_DOT":-1.086e-5,"MEAN_MOTION_DDOT":0}]
